
# Worst residual: 16.75 km
# MJD 59995.000000 (2023 Feb 20  0:00)
2018-103B = NORAD 43846 = Chang'e 4 booster
1 43846U 18103B   23051.49919926  .00000000  00000-0  00000-0 2 18709
2 43846 045.4036 285.2657 6087053 157.9404 131.4895 00.02125436    07

# Worst residual: 13.01 km
# MJD 59996.000000 (2023 Feb 21  0:00)
2018-103B = NORAD 43846 = Chang'e 4 booster
1 43846U 18103B   23052.49919926  .00000000  00000-0  00000-0 2 18700
2 43846 045.4555 285.2122 6082895 157.6917 140.0420 00.02130654    03

# Worst residual: 9.31 km
# MJD 59997.000000 (2023 Feb 22  0:00)
2018-103B = NORAD 43846 = Chang'e 4 booster
1 43846U 18103B   23053.49919926  .00000000  00000-0  00000-0 2 18701
2 43846 045.4955 285.1746 6080812 157.5086 148.3775 00.02133799    08

# Worst residual: 6.04 km
# MJD 59998.000000 (2023 Feb 23  0:00)
2018-103B = NORAD 43846 = Chang'e 4 booster
1 43846U 18103B   23054.49919926  .00000000  00000-0  00000-0 2 18702
2 43846 045.5039 285.1673 6078312 157.3776 156.5049 00.02135125    07

# Worst residual: 3.69 km
# MJD 59999.000000 (2023 Feb 24  0:00)
2018-103B = NORAD 43846 = Chang'e 4 booster
1 43846U 18103B   23055.49919926  .00000000  00000-0  00000-0 2 18703
2 43846 045.4645 285.1974 6073361 157.2823 164.4492 00.02134891    03

# Worst residual: 6.24 km
# MJD 60000.000000 (2023 Feb 25  0:00)
2018-103B = NORAD 43846 = Chang'e 4 booster
1 43846U 18103B   23056.49919926  .00000000  00000-0  00000-0 2 18704
2 43846 045.3667 285.2655 6064483 157.2068 172.2441 00.02133323    09

# Worst residual: 9.04 km
# MJD 60001.000000 (2023 Feb 26  0:00)
2018-103B = NORAD 43846 = Chang'e 4 booster
1 43846U 18103B   23057.49919926  .00000000  00000-0  00000-0 2 18705
2 43846 045.2046 285.3675 6050717 157.1371 179.9249 00.02130591    07

# Worst residual: 11.46 km
# MJD 60002.000000 (2023 Feb 27  0:00)
2018-103B = NORAD 43846 = Chang'e 4 booster
1 43846U 18103B   23058.49919926  .00000000  00000-0  00000-0 2 18706
2 43846 044.9767 285.4964 6031651 157.0603 187.5274 00.02126826    07

# Worst residual: 14.74 km
# MJD 60003.000000 (2023 Feb 28  0:00)
2018-103B = NORAD 43846 = Chang'e 4 booster
1 43846U 18103B   23059.49919926  .00000000  00000-0  00000-0 2 18707
2 43846 044.6870 285.6422 6006546 156.9695 195.0739 00.02121985    05

# Worst residual: 17.45 km
# MJD 60004.000000 (2023 Mar  1  0:00)
2018-103B = NORAD 43846 = Chang'e 4 booster
1 43846U 18103B   23060.49919926  .00000000  00000-0  00000-0 2 18709
2 43846 044.3385 285.7966 5975766 156.8534 202.5970 00.02116128    00

# Worst residual: 19.99 km
# MJD 60005.000000 (2023 Mar  2  0:00)
2018-103B = NORAD 43846 = Chang'e 4 booster
1 43846U 18103B   23061.49919926  .00000000  00000-0  00000-0 2 18700
2 43846 043.9388 285.9495 5939214 156.7050 210.1165 00.02109151    06

# Worst residual: 22.30 km
# MJD 60006.000000 (2023 Mar  3  0:00)
2018-103B = NORAD 43846 = Chang'e 4 booster
1 43846U 18103B   23062.49919926  .00000000  00000-0  00000-0 2 18701
2 43846 043.4961 286.0919 5897089 156.5166 217.6521 00.02100930    04

# Worst residual: 24.32 km
# MJD 60007.000000 (2023 Mar  4  0:00)
2018-103B = NORAD 43846 = Chang'e 4 booster
1 43846U 18103B   23063.49919926  .00000000  00000-0  00000-0 2 18702
2 43846 043.0203 286.2150 5849767 156.2798 225.2211 00.02091302    09

# Worst residual: 26.00 km
# MJD 60008.000000 (2023 Mar  5  0:00)
2018-103B = NORAD 43846 = Chang'e 4 booster
1 43846U 18103B   23064.49919926  .00000000  00000-0  00000-0 2 18703
2 43846 042.5224 286.3111 5797862 155.9857 232.8390 00.02080071    07

# Worst residual: 27.24 km
# MJD 60009.000000 (2023 Mar  6  0:00)
2018-103B = NORAD 43846 = Chang'e 4 booster
1 43846U 18103B   23065.49919926  .00000000  00000-0  00000-0 2 18704
2 43846 042.0148 286.3738 5742296 155.6250 240.5186 00.02067031    07

# Worst residual: 27.92 km
# MJD 60010.000000 (2023 Mar  7  0:00)
2018-103B = NORAD 43846 = Chang'e 4 booster
1 43846U 18103B   23066.49919926  .00000000  00000-0  00000-0 2 18705
2 43846 041.5106 286.3984 5684370 155.1890 248.2690 00.02051981    03

# Worst residual: 28.06 km
# MJD 60011.000000 (2023 Mar  8  0:00)
2018-103B = NORAD 43846 = Chang'e 4 booster
1 43846U 18103B   23067.49919926  .00000000  00000-0  00000-0 2 18706
2 43846 041.0229 286.3826 5625811 154.6701 256.0938 00.02034752    08

# Worst residual: 27.54 km
# MJD 60012.000000 (2023 Mar  9  0:00)
2018-103B = NORAD 43846 = Chang'e 4 booster
1 43846U 18103B   23068.49919926  .00000000  00000-0  00000-0 2 18707
2 43846 040.5647 286.3269 5568769 154.0643 263.9894 00.02015243    06

# Worst residual: 26.26 km
# MJD 60013.000000 (2023 Mar 10  0:00)
2018-103B = NORAD 43846 = Chang'e 4 booster
1 43846U 18103B   23069.49919926  .00000000  00000-0  00000-0 2 18708
2 43846 040.1474 286.2348 5515752 153.3729 271.9429 00.01993451    06

# Worst residual: 24.17 km
# MJD 60014.000000 (2023 Mar 11  0:00)
2018-103B = NORAD 43846 = Chang'e 4 booster
1 43846U 18103B   23070.49919926  .00000000  00000-0  00000-0 2 18700
2 43846 039.7803 286.1127 5469481 152.6057 279.9303 00.01969508    08

# Worst residual: 21.27 km
# MJD 60015.000000 (2023 Mar 12  0:00)
2018-103B = NORAD 43846 = Chang'e 4 booster
1 43846U 18103B   23071.49919926  .00000000  00000-0  00000-0 2 18701
2 43846 039.4693 285.9695 5432634 151.7830 287.9158 00.01943727    00

# Worst residual: 19.94 km
# MJD 60016.000000 (2023 Mar 13  0:00)
2018-103B = NORAD 43846 = Chang'e 4 booster
1 43846U 18103B   23072.49919926  .00000000  00000-0  00000-0 2 18702
2 43846 039.2165 285.8151 5407503 150.9380 295.8517 00.01916632    08

# Worst residual: 20.15 km
# MJD 60017.000000 (2023 Mar 14  0:00)
2018-103B = NORAD 43846 = Chang'e 4 booster
1 43846U 18103B   23073.49919926  .00000000  00000-0  00000-0 2 18703
2 43846 039.0198 285.6595 5395552 150.1174 303.6810 00.01888995    09

# Worst residual: 19.18 km
# MJD 60018.000000 (2023 Mar 15  0:00)
2018-103B = NORAD 43846 = Chang'e 4 booster
1 43846U 18103B   23074.49919926  .00000000  00000-0  00000-0 2 18704
2 43846 038.8731 285.5099 5396936 149.3783 311.3425 00.01861862    02

# Worst residual: 16.72 km
# MJD 60019.000000 (2023 Mar 16  0:00)
2018-103B = NORAD 43846 = Chang'e 4 booster
1 43846U 18103B   23075.49919926  .00000000  00000-0  00000-0 2 18705
2 43846 038.7673 285.3696 5410110 148.7829 318.7793 00.01836544    00
